{
  "norad_id": 61061,
  "name": "STARLINK-11233 [DTC]",
  "history": [
    {
      "epoch": "2026-03-28T19:58:10.646688",
      "apogee_km": 360.4423682638071,
      "perigee_km": 358.9026440354628,
      "latitude_deg": 49.13458351126683,
      "longitude_deg": 5.978496320080012,
      "semi_major_axis_km": 6737.809506149635,
      "eccentricity": 0.00011426,
      "inclination_deg": 53.1582,
      "raan_deg": 217.0302,
      "arg_perigee_deg": 82.7724,
      "mean_anomaly_deg": 277.3424,
      "mean_motion_rev_day": 15.69728956
    }
  ]
}