{"fetched_at":"2026-03-29T16:36:15Z","count":15609,"tles":[{"name":"STARLINK-11233 [DTC]","line1":"1 61061U 24164M   26087.83206767  .00005616  00000+0  51139-4 0  9993","line2":"2 61061  53.1582 217.0302 0001142  82.7724 277.3424 15.69728956 88422","category":"Starlink"}]}